SIRION PATHFINDER-2     
1 43759U 18099B   26169.37098117  .00003507  00000+0  19365-3 0  9996
2 43759  97.4248 218.4004 0007168 300.0763  59.9758 15.14555966412809
CORVUS BC4              
1 43767U 18099K   26169.57762615  .00003242  00000+0  18973-3 0  9998
2 43767  97.4063 212.5173 0008139   8.8952 351.2422 15.12505661412617
M2 PATHFINDER           
1 45727U 20037E   26169.50988746  .00001244  00000+0  92874-4 0  9992
2 45727  97.8145   0.7565 0012559 142.3155 217.8953 15.04679497325699
NETSAT-4                
1 46504U 20068U   26168.96738356  .00014505  00000+0  32135-3 0  9996
2 46504  97.8602 177.2709 0003746 334.9225  25.1839 15.43886308315894
NETSAT-3                
1 46505U 20068V   26168.97425815  .00015908  00000+0  36637-3 0  9990
2 46505  97.8650 175.4935 0004105 358.6628   1.4606 15.42703106315802
NETSAT-1                
1 46506U 20068W   26169.43948322  .00009731  00000+0  29212-3 0  9994
2 46506  97.8747 170.3121 0004889  28.7816 331.3694 15.34667272315495
NETSAT-2                
1 46507U 20068X   26169.45942466  .00018392  00000+0  37804-3 0  9999
2 46507  97.8610 177.7012 0003287  23.2689 336.8708 15.46044422315938
GREENCUBE (IO-117)      
1 53109U 22080E   26169.42938941 -.00000003  00000+0  00000+0 0  9996
2 53109  70.1442 297.8130 0008904 289.4279  70.5418  6.42583246 92141
SITRO-AIS 5 (KATYS)     
1 57176U 23091L   26169.57474430  .00009515  00000+0  33472-3 0  9990
2 57176  97.5056 233.4874 0012752  99.3309 260.9374 15.29483416164556
SITRO-AIS 6 (CHIRKIN)   
1 57192U 23091AC  26169.62246849  .00007656  00000+0  30030-3 0  9996
2 57192  97.5063 232.6471 0013098 102.1000 258.1706 15.25957383164509
SITRO-AIS 8 (ANOKHIN)   
1 57193U 23091AD  26169.58934360  .00011784  00000+0  38102-3 0  9999
2 57193  97.5051 235.0962 0011756  95.7724 264.4859 15.32168530164660
SITRO-AIS 7 (FARTUSHNIY)
1 57194U 23091AE  26169.56032248  .00007616  00000+0  30153-3 0  9999
2 57194  97.5061 232.4091 0012960 103.2287 257.0398 15.25644426164484
SITRO-AIS 10 (BURDAEV)  
1 57199U 23091AK  26169.61498731  .00016009  00000+0  42072-3 0  9992
2 57199  97.5078 240.1913 0007410  76.0322 284.1747 15.38657532164987
SITRO-AIS 9 (SHCHUKIN)  
1 57201U 23091AM  26169.57678887  .00015366  00000+0  41045-3 0  9997
2 57201  97.5075 239.8813 0007669  76.2887 283.9211 15.38162675164966
SITRO-AIS 12 (SMIRENNIY)
1 57204U 23091AQ  26169.56714570  .00015566  00000+0  41189-3 0  9990
2 57204  97.5089 240.3394 0007193  71.3505 288.8521 15.38455674164984
SITRO-AIS 11 (SHEFFER)  
1 57208U 23091AU  26169.58017972  .00015654  00000+0  40852-3 0  9992
2 57208  97.5086 240.6002 0007093  71.0926 289.1087 15.38881283165001
SITRO-AIS 25            
1 59066U 24039R   26169.58214678  .00002290  00000+0  18054-3 0  9992
2 59066  95.3904 236.0513 0143275 323.8249  35.3349 14.93519055124939
SITRO-AIS 26            
1 59067U 24039S   26169.58370935  .00002139  00000+0  16959-3 0  9996
2 59067  95.3910 235.9495 0143679 324.4327  34.7385 14.93315282124924
SITRO-AIS 27            
1 59068U 24039T   26169.62054925  .00001681  00000+0  13273-3 0  9997
2 59068  95.3911 236.2474 0142650 322.9116  36.2316 14.93736460124953
SITRO-AIS 28            
1 59071U 24039U   26169.59796358  .00002306  00000+0  18086-3 0  9992
2 59071  95.3912 236.2791 0142587 322.8142  36.3272 14.93769557124952
GRBBETA                 
1 60237U 24128C   26169.41466747  .00002322  00000+0  16766-3 0  9995
2 60237  61.9881 211.9597 0040487 134.9163 225.5227 15.06645417106457
OOV-CUBE (TUBSAT-30)    
1 60240U 24128F   26169.58586731  .00001416  00000+0  11902-3 0  9993
2 60240  61.9932 220.6959 0044463 134.0792 226.3973 15.02778204106324
ROBUSTA-3A (MEDITERRAN*)
1 60243U 24128J   26169.59008340  .00004012  00000+0  24302-3 0  9995
2 60243  61.9844 203.2827 0041220 128.1819 232.3001 15.11687144106637
LASARSAT                
1 62391U 24247Q   26167.97623210  .00026221  00000+0  52389-3 0  9994
2 62391  44.9742 263.4006 0008180 330.0323  30.0098 15.46364825 83280
CROCUBE                 
1 62394U 24247T   26168.68403664  .00028750  00000+0  53655-3 0  9991
2 62394  44.9716 256.7472 0007967 338.3414  21.7139 15.48292245 83427
FORESAIL-1 PRIME        
1 66778U 25276DS  26169.51197863  .00003659  00000+0  17953-3 0  9990
2 66778  97.4198 242.7588 0003952 100.5303 259.6377 15.18712200 30606
KNACKSAT-2              
1 67683U 98067XZ  26168.60673955  .00040994  00000+0  49993-3 0  9996
2 67683  51.6314 292.3670 0009088 217.1010 142.9356 15.60014370 20344
